{"type": "FeatureCollection", "features": [ {"type": "Feature", "properties": {"norad_id": 34833, "name": "IRIDIUM 33 DEB", "group": "iridium-33-debris", "lat": 12.654403644962851, "lon": -130.33730988054347, "alt_km": 714.4726313992351, "timestamp": "2025-12-13T22:39:30.095817+00:00", "meta": {"OBJECT_NAME": "IRIDIUM 33 DEB", "OBJECT_ID": "1997-051MH", "EPOCH": "2025-12-13T05:39:36.676224", "MEAN_MOTION": 14.52385927, "ECCENTRICITY": 0.00217693, "INCLINATION": 86.3928, "RA_OF_ASC_NODE": 50.7794, "ARG_OF_PERICENTER": 97.0159, "MEAN_ANOMALY": 329.1359, "EPHEMERIS_TYPE": 0, "CLASSIFICATION_TYPE": "U", "NORAD_CAT_ID": 34833, "ELEMENT_SET_NO": 999, "REV_AT_EPOCH": 87722, "BSTAR": 0.0012812124, "MEAN_MOTION_DOT": 5.253e-05, "MEAN_MOTION_DDOT": 0}, "tle": {"line1": "1 34833U 97051MH  25347.23584116  .00005253  00000+0  12812-2 0  9994", "line2": "2 34833  86.3928  50.7794 0021769  97.0159 329.1359 14.52385927877221"}}, "geometry": {"type": "Point", "coordinates": [-130.33730988054347, 12.654403644962851]}}, {"type": "Feature", "properties": {"norad_id": 34870, "name": "IRIDIUM 33 DEB", "group": "iridium-33-debris", "lat": -63.193074793256564, "lon": 140.8695420922841, "alt_km": 642.9779719622265, "timestamp": "2025-12-13T22:39:30.095827+00:00", "meta": {"OBJECT_NAME": "IRIDIUM 33 DEB", "OBJECT_ID": "1997-051MQ", "EPOCH": "2025-12-12T05:10:32.154816", "MEAN_MOTION": 14.76416829, "ECCENTRICITY": 0.00161138, "INCLINATION": 86.3104, "RA_OF_ASC_NODE": 314.324, "ARG_OF_PERICENTER": 184.3674, "MEAN_ANOMALY": 237.8107, "EPHEMERIS_TYPE": 0, "CLASSIFICATION_TYPE": "U", "NORAD_CAT_ID": 34870, "ELEMENT_SET_NO": 999, "REV_AT_EPOCH": 88903, "BSTAR": 0.0023634796, "MEAN_MOTION_DOT": 0.00016508, "MEAN_MOTION_DDOT": 0}, "tle": {"line1": "1 34870U 97051MQ  25346.21564994  .00016508  00000+0  23635-2 0  9994", "line2": "2 34870  86.3104 314.3240 0016113 184.3674 237.8107 14.76416829889032"}}, "geometry": {"type": "Point", "coordinates": [140.8695420922841, -63.193074793256564]}}, {"type": "Feature", "properties": {"norad_id": 34896, "name": "IRIDIUM 33 DEB", "group": "iridium-33-debris", "lat": 40.089027339484915, "lon": -30.756062279670623, "alt_km": 686.6579528550892, "timestamp": "2025-12-13T22:39:30.095837+00:00", "meta": {"OBJECT_NAME": "IRIDIUM 33 DEB", "OBJECT_ID": "1997-051MY", "EPOCH": "2025-12-12T17:48:22.643136", "MEAN_MOTION": 14.66279209, "ECCENTRICITY": 0.00240874, "INCLINATION": 86.3285, "RA_OF_ASC_NODE": 326.6847, "ARG_OF_PERICENTER": 215.1277, "MEAN_ANOMALY": 323.4993, "EPHEMERIS_TYPE": 0, "CLASSIFICATION_TYPE": "U", "NORAD_CAT_ID": 34896, "ELEMENT_SET_NO": 999, "REV_AT_EPOCH": 87619, "BSTAR": 0.0014275546, "MEAN_MOTION_DOT": 7.927e-05, "MEAN_MOTION_DDOT": 0}, "tle": {"line1": "1 34896U 97051MY  25346.74192874  .00007927  00000+0  14276-2 0  9990", "line2": "2 34896  86.3285 326.6847 0024087 215.1277 323.4993 14.66279209876196"}}, "geometry": {"type": "Point", "coordinates": [-30.756062279670623, 40.089027339484915]}}, {"type": "Feature", "properties": {"norad_id": 34926, "name": "IRIDIUM 33 DEB", "group": "iridium-33-debris", "lat": 75.62318721629065, "lon": 23.016217751991018, "alt_km": 748.8631511126223, "timestamp": "2025-12-13T22:39:30.095848+00:00", "meta": {"OBJECT_NAME": "IRIDIUM 33 DEB", "OBJECT_ID": "1997-051NF", "EPOCH": "2025-12-12T12:20:13.285824", "MEAN_MOTION": 14.54404213, "ECCENTRICITY": 0.00756259, "INCLINATION": 86.1328, "RA_OF_ASC_NODE": 8.3778, "ARG_OF_PERICENTER": 293.6501, "MEAN_ANOMALY": 219.03, "EPHEMERIS_TYPE": 0, "CLASSIFICATION_TYPE": "U", "NORAD_CAT_ID": 34926, "ELEMENT_SET_NO": 999, "REV_AT_EPOCH": 86453, "BSTAR": 0.0080603055, "MEAN_MOTION_DOT": 0.0003576, "MEAN_MOTION_DDOT": 0}, "tle": {"line1": "1 34926U 97051NF  25346.51404266  .00035760  00000+0  80603-2 0  9993", "line2": "2 34926  86.1328   8.3778 0075625 293.6501 219.0300 14.54404213864537"}}, "geometry": {"type": "Point", "coordinates": [23.016217751991018, 75.62318721629065]}}, {"type": "Feature", "properties": {"norad_id": 34985, "name": "IRIDIUM 33 DEB", "group": "iridium-33-debris", "lat": 33.24960188791288, "lon": -126.01947042855205, "alt_km": 744.5910984700668, "timestamp": "2025-12-13T22:39:30.095859+00:00", "meta": {"OBJECT_NAME": "IRIDIUM 33 DEB", "OBJECT_ID": "1997-051NR", "EPOCH": "2025-12-12T23:13:51.153888", "MEAN_MOTION": 14.42012529, "ECCENTRICITY": 0.00207583, "INCLINATION": 86.37, "RA_OF_ASC_NODE": 56.7821, "ARG_OF_PERICENTER": 219.0302, "MEAN_ANOMALY": 263.5766, "EPHEMERIS_TYPE": 0, "CLASSIFICATION_TYPE": "U", "NORAD_CAT_ID": 34985, "ELEMENT_SET_NO": 999, "REV_AT_EPOCH": 87178, "BSTAR": 0.0010455492, "MEAN_MOTION_DOT": 3.457e-05, "MEAN_MOTION_DDOT": 0}, "tle": {"line1": "1 34985U 97051NR  25346.96795317  .00003457  00000+0  10455-2 0  9993", "line2": "2 34985  86.3700  56.7821 0020758 219.0302 263.5766 14.42012529871789"}}, "geometry": {"type": "Point", "coordinates": [-126.01947042855205, 33.24960188791288]}}, {"type": "Feature", "properties": {"norad_id": 35051, "name": "IRIDIUM 33 DEB", "group": "iridium-33-debris", "lat": 75.7192160919456, "lon": 173.7090597323803, "alt_km": 719.1537806493625, "timestamp": "2025-12-13T22:39:30.095869+00:00", "meta": {"OBJECT_NAME": "IRIDIUM 33 DEB", "OBJECT_ID": "1997-051NX", "EPOCH": "2025-12-11T08:47:57.045408", "MEAN_MOTION": 14.47588957, "ECCENTRICITY": 0.00106566, "INCLINATION": 86.3243, "RA_OF_ASC_NODE": 9.4603, "ARG_OF_PERICENTER": 94.8899, "MEAN_ANOMALY": 265.3522, "EPHEMERIS_TYPE": 0, "CLASSIFICATION_TYPE": "U", "NORAD_CAT_ID": 35051, "ELEMENT_SET_NO": 999, "REV_AT_EPOCH": 86976, "BSTAR": 0.001042299, "MEAN_MOTION_DOT": 3.858e-05, "MEAN_MOTION_DDOT": 0}, "tle": {"line1": "1 35051U 97051NX  25345.36663247  .00003858  00000+0  10423-2 0  9997", "line2": "2 35051  86.3243   9.4603 0010656  94.8899 265.3522 14.47588957869768"}}, "geometry": {"type": "Point", "coordinates": [173.7090597323803, 75.7192160919456]}}, {"type": "Feature", "properties": {"norad_id": 35052, "name": "IRIDIUM 33 DEB", "group": "iridium-33-debris", "lat": -33.60727740197013, "lon": -157.59576083957222, "alt_km": 776.2930447482722, "timestamp": "2025-12-13T22:39:30.095879+00:00", "meta": {"OBJECT_NAME": "IRIDIUM 33 DEB", "OBJECT_ID": "1997-051NY", "EPOCH": "2025-12-13T01:38:09.843936", "MEAN_MOTION": 14.38492837, "ECCENTRICITY": 0.00136697, "INCLINATION": 86.331, "RA_OF_ASC_NODE": 20.3356, "ARG_OF_PERICENTER": 84.1848, "MEAN_ANOMALY": 276.0908, "EPHEMERIS_TYPE": 0, "CLASSIFICATION_TYPE": "U", "NORAD_CAT_ID": 35052, "ELEMENT_SET_NO": 999, "REV_AT_EPOCH": 87280, "BSTAR": 0.00026714686, "MEAN_MOTION_DOT": 8.36e-06, "MEAN_MOTION_DDOT": 0}, "tle": {"line1": "1 35052U 97051NY  25347.06816949  .00000836  00000+0  26715-3 0  9991", "line2": "2 35052  86.3310  20.3356 0013669  84.1848 276.0908 14.38492837872801"}}, "geometry": {"type": "Point", "coordinates": [-157.59576083957222, -33.60727740197013]}}, {"type": "Feature", "properties": {"norad_id": 35080, "name": "IRIDIUM 33 DEB", "group": "iridium-33-debris", "lat": -55.13676182277559, "lon": -122.7355404976688, "alt_km": 595.2812818580032, "timestamp": "2025-12-13T22:39:30.095890+00:00", "meta": {"OBJECT_NAME": "IRIDIUM 33 DEB", "OBJECT_ID": "1997-051PF", "EPOCH": "2025-12-12T03:35:19.907808", "MEAN_MOTION": 14.85960238, "ECCENTRICITY": 0.00604695, "INCLINATION": 86.207, "RA_OF_ASC_NODE": 52.6577, "ARG_OF_PERICENTER": 181.932, "MEAN_ANOMALY": 178.1681, "EPHEMERIS_TYPE": 0, "CLASSIFICATION_TYPE": "U", "NORAD_CAT_ID": 35080, "ELEMENT_SET_NO": 999, "REV_AT_EPOCH": 69679, "BSTAR": 0.0091733841, "MEAN_MOTION_DOT": 0.00083628, "MEAN_MOTION_DDOT": 0}, "tle": {"line1": "1 35080U 97051PF  25346.14953597  .00083628  00000+0  91734-2 0  9993", "line2": "2 35080  86.2070  52.6577 0060469 181.9320 178.1681 14.85960238696797"}}, "geometry": {"type": "Point", "coordinates": [-122.7355404976688, -55.13676182277559]}}, {"type": "Feature", "properties": {"norad_id": 35297, "name": "IRIDIUM 33 DEB", "group": "iridium-33-debris", "lat": 30.52723365766472, "lon": -119.89202808423707, "alt_km": 727.647319848832, "timestamp": "2025-12-13T22:39:30.095900+00:00", "meta": {"OBJECT_NAME": "IRIDIUM 33 DEB", "OBJECT_ID": "1997-051PM", "EPOCH": "2025-12-12T22:42:20.538720", "MEAN_MOTION": 14.45159336, "ECCENTRICITY": 0.00177378, "INCLINATION": 86.3854, "RA_OF_ASC_NODE": 62.6701, "ARG_OF_PERICENTER": 139.4968, "MEAN_ANOMALY": 220.7558, "EPHEMERIS_TYPE": 0, "CLASSIFICATION_TYPE": "U", "NORAD_CAT_ID": 35297, "ELEMENT_SET_NO": 999, "REV_AT_EPOCH": 70429, "BSTAR": 0.0010165954, "MEAN_MOTION_DOT": 3.583e-05, "MEAN_MOTION_DDOT": 0}, "tle": {"line1": "1 35297U 97051PM  25346.94607105  .00003583  00000+0  10166-2 0  9994", "line2": "2 35297  86.3854  62.6701 0017737 139.4968 220.7558 14.45159336704291"}}, "geometry": {"type": "Point", "coordinates": [-119.89202808423707, 30.52723365766472]}}, {"type": "Feature", "properties": {"norad_id": 35299, "name": "IRIDIUM 33 DEB", "group": "iridium-33-debris", "lat": 62.824231321071586, "lon": 39.92538516354757, "alt_km": 715.162362905512, "timestamp": "2025-12-13T22:39:30.095910+00:00", "meta": {"OBJECT_NAME": "IRIDIUM 33 DEB", "OBJECT_ID": "1997-051PP", "EPOCH": "2025-12-12T09:58:22.179072", "MEAN_MOTION": 14.40859086, "ECCENTRICITY": 0.00589602, "INCLINATION": 86.2886, "RA_OF_ASC_NODE": 33.3272, "ARG_OF_PERICENTER": 103.4207, "MEAN_ANOMALY": 316.2775, "EPHEMERIS_TYPE": 0, "CLASSIFICATION_TYPE": "U", "NORAD_CAT_ID": 35299, "ELEMENT_SET_NO": 999, "REV_AT_EPOCH": 86326, "BSTAR": 0.0012314468, "MEAN_MOTION_DOT": 4.048e-05, "MEAN_MOTION_DDOT": 0}, "tle": {"line1": "1 35299U 97051PP  25346.41553448  .00004048  00000+0  12314-2 0  9992", "line2": "2 35299  86.2886  33.3272 0058960 103.4207 316.2775 14.40859086863264"}}, "geometry": {"type": "Point", "coordinates": [39.92538516354757, 62.824231321071586]}}]}